NORAD_CAT_ID,OBJECT_NAME,OBJECT_TYPE,EPOCH,MEAN_MOTION,ECCENTRICITY,INCLINATION,RA_OF_ASC_NODE,ARG_OF_PERICENTER,MEAN_ANOMALY,BSTAR,MEAN_MOTION_DOT,MEAN_MOTION_DDOT,TLE_LINE0,TLE_LINE1,TLE_LINE2,SEMIMAJOR_AXIS,PERIOD,APOGEE,PERIGEE,DECAYED
55947.0,STARLINK-5851,PAYLOAD,2023-05-20 01:21:38,15.69928808,0.0003229,69.9967,3.1268,281.2412,78.842,7.8365e-06,7.3e-06,0.0,0 STARLINK-5851,1 55947U 23037AK  23140.05669212  .00000730  00000-0  78365-5 0  9990,2 55947  69.9967   3.1268 0003229 281.2412  78.8420 15.69928808 10460,6737.238,91.724,361.278,356.927,0.0
55947.0,STARLINK-5851,PAYLOAD,2023-05-20 18:10:53,15.69947947,0.0003859,69.9968,1.1578,270.9472,89.1281,-2.8004e-06,-5.5e-06,0.0,0 STARLINK-5851,1 55947U 23037AK  23140.75756117 -.00000550  00000-0 -28004-5 0  9995,2 55947  69.9968   1.1578 0003859 270.9472  89.1281 15.69947947 10570,6737.183,91.723,361.648,356.448,0.0
55947.0,STARLINK-5851,PAYLOAD,2023-05-20 21:14:24,15.69925018,0.0003377,69.9973,0.7978,274.2002,85.8807,8.4914e-06,8.08e-06,0.0,0 STARLINK-5851,1 55947U 23037AK  23140.88500605  .00000808  00000-0  84914-5 0  9994,2 55947  69.9973   0.7978 0003377 274.2002  85.8807 15.69925018 10253,6737.249,91.724,361.389,356.838,0.0
55947.0,STARLINK-5851,PAYLOAD,2023-05-21 00:17:56,15.69903486,0.0003133,69.9959,0.4386,275.4839,84.5999,-1.4215e-05,-1.92e-05,0.0,0 STARLINK-5851,1 55947U 23037AK  23141.01245779 -.00001920  00000-0 -14215-4 0  9992,2 55947  69.9959   0.4386 0003133 275.4839  84.5999 15.69903486 10611,6737.31,91.725,361.286,357.064,0.0
55947.0,STARLINK-5851,PAYLOAD,2023-05-21 14:03:41,15.69917078,0.0003861,69.9968,358.8284,271.3457,88.7296,-7.2263e-06,-1.082e-05,0.0,0 STARLINK-5851,1 55947U 23037AK  23141.58590137 -.00001082  00000-0 -72263-5 0  9992,2 55947  69.9968 358.8284 0003861 271.3457  88.7296 15.69917078 10367,6737.271,91.725,361.737,356.535,0.0
55947.0,STARLINK-5851,PAYLOAD,2023-05-21 15:35:26,15.69929059,0.000342,69.9975,358.6494,263.7028,96.3778,5.373e-06,4.33e-06,0.0,0 STARLINK-5851,1 55947U 23037AK  23141.64960874  .00000433  00000-0  53730-5 0  9993,2 55947  69.9975 358.6494 0003420 263.7028  96.3778 15.69929059 10717,6737.237,91.724,361.406,356.798,0.0
55947.0,STARLINK-5851,PAYLOAD,2023-05-21 18:38:56,15.69933744,0.0003959,69.9974,358.2907,272.106,87.9682,1.1693e-05,1.194e-05,0.0,0 STARLINK-5851,1 55947U 23037AK  23141.77703826  .00001194  00000-0  11693-4 0  9995,2 55947  69.9974 358.2907 0003959 272.1060  87.9682 15.69933744 10398,6737.224,91.724,361.756,356.421,0.0
55947.0,STARLINK-5851,PAYLOAD,2023-05-21 23:14:11,15.69934285,0.0003805,69.9969,357.7525,266.6509,93.4251,1.2844e-05,1.332e-05,0.0,0 STARLINK-5851,1 55947U 23037AK  23141.96818701  .00001332  00000-0  12844-4 0  9998,2 55947  69.9969 357.7525 0003805 266.6509  93.4251 15.69934285 10427,6737.222,91.724,361.651,356.523,0.0
55947.0,STARLINK-5851,PAYLOAD,2023-05-22 16:03:28,15.69920053,0.0003662,69.9969,355.7814,268.7998,91.2778,8.8941e-06,8.56e-06,0.0,0 STARLINK-5851,1 55947U 23037AK  23142.66907835  .00000856  00000-0  88941-5 0  9995,2 55947  69.9969 355.7814 0003662 268.7998  91.2778 15.69920053 10879,6737.263,91.724,361.595,356.661,0.0
55947.0,STARLINK-5851,PAYLOAD,2023-05-22 20:38:43,15.69921607,0.0003646,69.9969,355.2441,269.6683,90.4094,9.7029e-06,9.54e-06,0.0,0 STARLINK-5851,1 55947U 23037AK  23142.86022774  .00000954  00000-0  97029-5 0  9993,2 55947  69.9969 355.2441 0003646 269.6683  90.4094 15.69921607 10567,6737.258,91.724,361.58,356.667,0.0
55947.0,STARLINK-5851,PAYLOAD,2023-05-23 16:31:30,15.69927892,0.0003714,69.9973,352.9152,271.8782,88.1988,1.1714e-06,-7.2e-07,0.0,0 STARLINK-5851,1 55947U 23037AK  23143.68854599 -.00000072  00000-0  11714-5 0  9991,2 55947  69.9973 352.9152 0003714 271.8782  88.1988 15.69927892 11037,6737.24,91.724,361.608,356.603,0.0
55947.0,STARLINK-5851,PAYLOAD,2023-05-24 00:10:17,15.69910415,0.0003223,69.9965,352.0185,277.4122,82.6707,-1.5887e-05,-2.121e-05,0.0,0 STARLINK-5851,1 55947U 23037AK  23144.00714403 -.00002121  00000-0 -15887-4 0  9999,2 55947  69.9965 352.0185 0003223 277.4122  82.6707 15.69910415 11086,6737.29,91.725,361.327,356.984,0.0
55947.0,STARLINK-5851,PAYLOAD,2023-05-24 15:27:47,15.69919414,0.0003557,69.9972,350.2279,270.9895,89.0894,4.9281e-06,3.8e-06,0.0,0 STARLINK-5851,1 55947U 23037AK  23144.64430086  .00000380  00000-0  49281-5 0  9990,2 55947  69.9972 350.2279 0003557 270.9895  89.0894 15.69919414 11180,6737.265,91.724,361.526,356.733,0.0
55947.0,STARLINK-5851,PAYLOAD,2023-05-25 14:24:04,15.69924391,0.0003553,69.996,347.5397,269.0793,90.9995,1.9249e-07,-1.9e-06,0.0,0 STARLINK-5851,1 55947U 23037AK  23145.60005001 -.00000190  00000-0  19249-6 0  9994,2 55947  69.9960 347.5397 0003553 269.0793  90.9995 15.69924391 10990,6737.25,91.724,361.509,356.722,0.0
55947.0,STARLINK-5851,PAYLOAD,2023-05-25 15:55:49,15.6992476,0.0003459,69.9961,347.3605,267.762,92.3179,1.072e-06,-8.4e-07,0.0,0 STARLINK-5851,1 55947U 23037AK  23145.66376610 -.00000084  00000-0  10720-5 0  9993,2 55947  69.9961 347.3605 0003459 267.7620  92.3179 15.69924760 11340,6737.249,91.724,361.445,356.784,0.0
55947.0,STARLINK-5851,PAYLOAD,2023-05-25 22:02:49,15.6992664,0.0003513,69.9961,346.6438,268.5809,91.4984,2.7306e-06,1.15e-06,0.0,0 STARLINK-5851,1 55947U 23037AK  23145.91863094  .00000115  00000-0  27306-5 0  9990,2 55947  69.9961 346.6438 0003513 268.5809  91.4984 15.69926640 11045,6737.244,91.724,361.476,356.742,0.0
55947.0,STARLINK-5851,PAYLOAD,2023-05-26 13:20:21,15.69925679,0.0003559,69.9959,344.8522,272.1856,87.8932,-8.5392e-06,-1.24e-05,0.0,0 STARLINK-5851,1 55947U 23037AK  23146.55580319 -.00001240  00000-0 -85392-5 0  9998,2 55947  69.9959 344.8522 0003559 272.1856  87.8932 15.69925679 11143,6737.247,91.724,361.509,356.714,0.0
55947.0,STARLINK-5851,PAYLOAD,2023-05-26 16:23:51,15.69929096,0.0003544,69.9964,344.4936,273.1738,86.9052,-7.1723e-06,-1.075e-05,0.0,0 STARLINK-5851,1 55947U 23037AK  23146.68323412 -.00001075  00000-0 -71723-5 0  9990,2 55947  69.9964 344.4936 0003544 273.1738  86.9052 15.69929096 11508,6737.237,91.724,361.49,356.714,0.0
55947.0,STARLINK-5851,PAYLOAD,2023-05-26 20:59:06,15.69929278,0.0003556,69.9964,343.9561,273.3415,86.7374,2.0731e-06,3.6e-07,0.0,0 STARLINK-5851,1 55947U 23037AK  23146.87438129  .00000036  00000-0  20731-5 0  9990,2 55947  69.9964 343.9561 0003556 273.3415  86.7374 15.69929278 11195,6737.236,91.724,361.497,356.706,0.0
55947.0,STARLINK-5851,PAYLOAD,2023-05-27 21:27:08,15.69922233,0.0003242,69.9969,341.0903,273.3861,86.6963,6.6531e-06,5.87e-06,0.0,0 STARLINK-5851,1 55947U 23037AK  23147.89385272  .00000587  00000-0  66531-5 0  9992,2 55947  69.9969 341.0903 0003242 273.3861  86.6963 15.69922233 11351,6737.256,91.724,361.306,356.937,0.0
55947.0,STARLINK-5851,PAYLOAD,2023-05-27 22:58:54,15.69922018,0.0003245,69.9969,340.9111,273.5061,86.5763,6.2679e-06,5.41e-06,0.0,0 STARLINK-5851,1 55947U 23037AK  23147.95756972  .00000541  00000-0  62679-5 0  9997,2 55947  69.9969 340.9111 0003245 273.5061  86.5763 15.69922018 11704,6737.257,91.724,361.308,356.936,0.0
55947.0,STARLINK-5851,PAYLOAD,2023-05-28 20:23:25,15.6993035,0.0003281,69.9971,338.4029,272.5366,87.5454,8.1172e-06,7.64e-06,0.0,0 STARLINK-5851,1 55947U 23037AK  23148.84959763  .00000764  00000-0  81172-5 0  9995,2 55947  69.9971 338.4029 0003281 272.5366  87.5454 15.69930350 11508,6737.233,91.724,361.309,356.888,0.0
55947.0,STARLINK-5851,PAYLOAD,2023-05-28 21:55:10,15.6992951,0.0003288,69.997,338.2237,272.606,87.4759,7.0518e-06,6.35e-06,0.0,0 STARLINK-5851,1 55947U 23037AK  23148.91331494  .00000635  00000-0  70518-5 0  9997,2 55947  69.9970 338.2237 0003288 272.6060  87.4759 15.69929510 11856,6737.236,91.724,361.316,356.885,0.0
55947.0,STARLINK-5851,PAYLOAD,2023-05-29 05:33:57,15.6991065,0.0003261,69.9973,337.3284,272.0103,88.0719,-5.5609e-06,-8.81e-06,0.0,0 STARLINK-5851,1 55947U 23037AK  23149.23191357 -.00000881  00000-0 -55609-5 0  9994,2 55947  69.9973 337.3284 0003261 272.0103  88.0719 15.69910650 11908,6737.29,91.725,361.352,356.958,0.0
55947.0,STARLINK-5851,PAYLOAD,2023-05-29 14:44:27,15.69914899,0.0003538,69.997,336.2529,272.7659,87.3132,-9.751e-07,-3.3e-06,0.0,0 STARLINK-5851,1 55947U 23037AK  23149.61421138 -.00000330  00000-0 -97510-6 0  9996,2 55947  69.9970 336.2529 0003538 272.7659  87.3132 15.69914899 11624,6737.277,91.725,361.526,356.759,0.0
55947.0,STARLINK-5851,PAYLOAD,2023-05-29 16:16:12,15.6991667,0.0003442,69.9972,336.0734,274.7217,85.3586,-1.6248e-07,-2.32e-06,0.0,0 STARLINK-5851,1 55947U 23037AK  23149.67792758 -.00000232  00000-0 -16248-6 0  9991,2 55947  69.9972 336.0734 0003442 274.7217  85.3586 15.69916670 11976,6737.272,91.725,361.456,356.818,0.0
55947.0,STARLINK-5851,PAYLOAD,2023-05-29 20:51:27,15.69931271,0.0003424,69.9974,335.5377,271.5609,88.5194,1.6087e-05,1.722e-05,0.0,0 STARLINK-5851,1 55947U 23037AK  23149.86906500  .00001722  00000-0  16087-4 0  9996,2 55947  69.9974 335.5377 0003424 271.5609  88.5194 15.69931271 11665,6737.231,91.724,361.402,356.789,0.0
55947.0,STARLINK-5851,PAYLOAD,2023-05-29 22:23:12,15.69932947,0.0003619,69.9964,335.3565,274.3424,85.7358,1.5879e-05,1.697e-05,0.0,0 STARLINK-5851,1 55947U 23037AK  23149.93278024  .00001697  00000-0  15879-4 0  9996,2 55947  69.9964 335.3565 0003619 274.3424  85.7358 15.69932947 12015,6737.226,91.724,361.529,356.653,0.0
55947.0,STARLINK-5851,PAYLOAD,2023-05-30 06:01:58,15.69922613,0.0003222,69.9973,334.4617,270.9072,89.1755,4.4424e-06,3.21e-06,0.0,0 STARLINK-5851,1 55947U 23037AK  23150.25137294  .00000321  00000-0  44424-5 0  9998,2 55947  69.9973 334.4617 0003222 270.9072  89.1755 15.69922613 12067,6737.255,91.724,361.291,356.95,0.0
55947.0,STARLINK-5851,PAYLOAD,2023-05-30 12:08:58,15.69928401,0.0003257,69.9974,333.7446,269.2457,90.8366,5.4994e-06,4.49e-06,0.0,0 STARLINK-5851,1 55947U 23037AK  23150.50623538  .00000449  00000-0  54994-5 0  9991,2 55947  69.9974 333.7446 0003257 269.2457  90.8366 15.69928401 11760,6737.239,91.724,361.298,356.91,0.0
